[{"OBJECT_NAME":"CORVUS BC1","OBJECT_ID":"2017-042Y","EPOCH":"2026-03-09T22:24:00.973440","MEAN_MOTION":15.05817893,"ECCENTRICITY":0.00132832,"INCLINATION":97.3986,"RA_OF_ASC_NODE":234.9925,"ARG_OF_PERICENTER":71.1953,"MEAN_ANOMALY":289.0714,"EPHEMERIS_TYPE":0,"CLASSIFICATION_TYPE":"U","NORAD_CAT_ID":42847,"ELEMENT_SET_NO":999,"REV_AT_EPOCH":47215,"BSTAR":0.00033801202,"MEAN_MOTION_DOT":4.853e-5,"MEAN_MOTION_DDOT":0},{"OBJECT_NAME":"STARLINK-3789","OBJECT_ID":"2022-041Y","EPOCH":"2026-03-09T19:07:03.355104","MEAN_MOTION":15.08836964,"ECCENTRICITY":0.00012911,"INCLINATION":53.2155,"RA_OF_ASC_NODE":108.6408,"ARG_OF_PERICENTER":85.474,"MEAN_ANOMALY":274.64,"EPHEMERIS_TYPE":0,"CLASSIFICATION_TYPE":"U","NORAD_CAT_ID":52283,"ELEMENT_SET_NO":999,"REV_AT_EPOCH":21438,"BSTAR":-6.707416e-6,"MEAN_MOTION_DOT":-3.95e-6,"MEAN_MOTION_DDOT":0}]
